[{"OBJECT_NAME":"STARLINK-34762","OBJECT_ID":"2025-195R","EPOCH":"2026-03-09T22:53:59.162208","MEAN_MOTION":15.30202082,"ECCENTRICITY":0.0001068,"INCLINATION":53.1565,"RA_OF_ASC_NODE":256.9897,"ARG_OF_PERICENTER":71.9033,"MEAN_ANOMALY":288.2084,"EPHEMERIS_TYPE":0,"CLASSIFICATION_TYPE":"U","NORAD_CAT_ID":65473,"ELEMENT_SET_NO":999,"REV_AT_EPOCH":3001,"BSTAR":0.00097008167,"MEAN_MOTION_DOT":0.00028484,"MEAN_MOTION_DDOT":0},{"OBJECT_NAME":"TRANSPORTER-1 OBJECT L","OBJECT_ID":"2021-006L","EPOCH":"2026-03-09T22:38:42.795168","MEAN_MOTION":15.33192932,"ECCENTRICITY":0.00114726,"INCLINATION":97.2368,"RA_OF_ASC_NODE":117.6447,"ARG_OF_PERICENTER":180.5165,"MEAN_ANOMALY":179.6068,"EPHEMERIS_TYPE":0,"CLASSIFICATION_TYPE":"U","NORAD_CAT_ID":47423,"ELEMENT_SET_NO":999,"REV_AT_EPOCH":28445,"BSTAR":0.00025636794,"MEAN_MOTION_DOT":8.162e-5,"MEAN_MOTION_DDOT":0}]
